{
  "type": "FeatureCollection",
  "features": [
    {
      "type": "Feature",
      "properties": {
        "norad_id": 66975,
        "name": "STARLINK-35777",
        "group": "last-30-days",
        "lat": -14.812788383272009,
        "lon": -52.238396401177646,
        "alt_km": 343.30919580455884,
        "timestamp": "2025-12-21T20:41:06.759234+00:00",
        "meta_object_name": "STARLINK-35777",
        "meta_object_id": "2025-288S",
        "meta_epoch": "2025-12-21T14:00:01.999872",
        "meta_mean_motion": 15.76759568,
        "meta_eccentricity": 0.00017934,
        "meta_inclination": 43.0008,
        "meta_ra_of_asc_node": 112.9686,
        "meta_arg_of_pericenter": 279.9099,
        "meta_mean_anomaly": 139.5407,
        "meta_ephemeris_type": 0,
        "meta_classification_type": "U",
        "meta_norad_cat_id": 66975,
        "meta_element_set_no": 999,
        "meta_rev_at_epoch": 325,
        "meta_bstar": -0.009613819,
        "meta_mean_motion_dot": -0.01413274,
        "meta_mean_motion_ddot": 0,
        "tle_line1": "1 66975U 25288S   25355.58335648 -.01413274  00000+0 -96138-2 0  9992",
        "tle_line2": "2 66975  43.0008 112.9686 0001793 279.9099 139.5407 15.76759568  3256"
      },
      "geometry": {
        "type": "Point",
        "coordinates": [
          -52.238396401177646,
          -14.812788383272009
        ]
      }
    },
    {
      "type": "Feature",
      "properties": {
        "norad_id": 66976,
        "name": "STARLINK-35772",
        "group": "last-30-days",
        "lat": -8.481073818296863,
        "lon": 102.60183261028241,
        "alt_km": 386.59913649533155,
        "timestamp": "2025-12-21T20:41:06.759245+00:00",
        "meta_object_name": "STARLINK-35772",
        "meta_object_id": "2025-288T",
        "meta_epoch": "2025-12-21T14:00:01.999872",
        "meta_mean_motion": 15.62017643,
        "meta_eccentricity": 9.007e-05,
        "meta_inclination": 43.0006,
        "meta_ra_of_asc_node": 113.4655,
        "meta_arg_of_pericenter": 279.5634,
        "meta_mean_anomaly": 300.6548,
        "meta_ephemeris_type": 0,
        "meta_classification_type": "U",
        "meta_norad_cat_id": 66976,
        "meta_element_set_no": 999,
        "meta_rev_at_epoch": 325,
        "meta_bstar": -0.031276076,
        "meta_mean_motion_dot": -0.02452245,
        "meta_mean_motion_ddot": 0,
        "tle_line1": "1 66976U 25288T   25355.58335648 -.02452245  00000+0 -31276-1 0  9996",
        "tle_line2": "2 66976  43.0006 113.4655 0000900 279.5634 300.6548 15.62017643  3250"
      },
      "geometry": {
        "type": "Point",
        "coordinates": [
          102.60183261028241,
          -8.481073818296863
        ]
      }
    },
    {
      "type": "Feature",
      "properties": {
        "norad_id": 66977,
        "name": "STARLINK-35770",
        "group": "last-30-days",
        "lat": -16.12889588818855,
        "lon": -50.65048879416148,
        "alt_km": 343.8695974675138,
        "timestamp": "2025-12-21T20:41:06.759254+00:00",
        "meta_object_name": "STARLINK-35770",
        "meta_object_id": "2025-288U",
        "meta_epoch": "2025-12-21T14:00:01.999872",
        "meta_mean_motion": 15.76643106,
        "meta_eccentricity": 0.00015173,
        "meta_inclination": 43.0008,
        "meta_ra_of_asc_node": 112.9636,
        "meta_arg_of_pericenter": 280.5896,
        "meta_mean_anomaly": 141.015,
        "meta_ephemeris_type": 0,
        "meta_classification_type": "U",
        "meta_norad_cat_id": 66977,
        "meta_element_set_no": 999,
        "meta_rev_at_epoch": 325,
        "meta_bstar": -0.010048328,
        "meta_mean_motion_dot": -0.01462654,
        "meta_mean_motion_ddot": 0,
        "tle_line1": "1 66977U 25288U   25355.58335648 -.01462654  00000+0 -10048-1 0  9995",
        "tle_line2": "2 66977  43.0008 112.9636 0001517 280.5896 141.0150 15.76643106  3253"
      },
      "geometry": {
        "type": "Point",
        "coordinates": [
          -50.65048879416148,
          -16.12889588818855
        ]
      }
    },
    {
      "type": "Feature",
      "properties": {
        "norad_id": 66978,
        "name": "STARLINK-35787",
        "group": "last-30-days",
        "lat": -19.86726348615719,
        "lon": -45.92887534747589,
        "alt_km": 344.6374984793474,
        "timestamp": "2025-12-21T20:41:06.759263+00:00",
        "meta_object_name": "STARLINK-35787",
        "meta_object_id": "2025-288V",
        "meta_epoch": "2025-12-21T14:00:01.999872",
        "meta_mean_motion": 15.76500273,
        "meta_eccentricity": 0.00015275,
        "meta_inclination": 43.0006,
        "meta_ra_of_asc_node": 112.9477,
        "meta_arg_of_pericenter": 283.5195,
        "meta_mean_anomaly": 144.1,
        "meta_ephemeris_type": 0,
        "meta_classification_type": "U",
        "meta_norad_cat_id": 66978,
        "meta_element_set_no": 999,
        "meta_rev_at_epoch": 325,
        "meta_bstar": -0.010432264,
        "meta_mean_motion_dot": -0.01503226,
        "meta_mean_motion_ddot": 0,
        "tle_line1": "1 66978U 25288V   25355.58335648 -.01503226  00000+0 -10432-1 0  9994",
        "tle_line2": "2 66978  43.0006 112.9477 0001527 283.5195 144.1000 15.76500273  3256"
      },
      "geometry": {
        "type": "Point",
        "coordinates": [
          -45.92887534747589,
          -19.86726348615719
        ]
      }
    },
    {
      "type": "Feature",
      "properties": {
        "norad_id": 66979,
        "name": "STARLINK-36107",
        "group": "last-30-days",
        "lat": -21.11142326581191,
        "lon": -44.272307351857016,
        "alt_km": 344.96206347503175,
        "timestamp": "2025-12-21T20:41:06.759273+00:00",
        "meta_object_name": "STARLINK-36107",
        "meta_object_id": "2025-288W",
        "meta_epoch": "2025-12-21T14:00:01.999872",
        "meta_mean_motion": 15.76408798,
        "meta_eccentricity": 0.00012592,
        "meta_inclination": 43.0008,
        "meta_ra_of_asc_node": 112.943,
        "meta_arg_of_pericenter": 277.4133,
        "meta_mean_anomaly": 152.2982,
        "meta_ephemeris_type": 0,
        "meta_classification_type": "U",
        "meta_norad_cat_id": 66979,
        "meta_element_set_no": 999,
        "meta_rev_at_epoch": 325,
        "meta_bstar": -0.010703995,
        "meta_mean_motion_dot": -0.01531784,
        "meta_mean_motion_ddot": 0,
        "tle_line1": "1 66979U 25288W   25355.58335648 -.01531784  00000+0 -10704-1 0  9997",
        "tle_line2": "2 66979  43.0008 112.9430 0001259 277.4133 152.2982 15.76408798  3252"
      },
      "geometry": {
        "type": "Point",
        "coordinates": [
          -44.272307351857016,
          -21.11142326581191
        ]
      }
    },
    {
      "type": "Feature",
      "properties": {
        "norad_id": 66980,
        "name": "STARLINK-36086",
        "group": "last-30-days",
        "lat": -22.308310852147148,
        "lon": -42.63147273256691,
        "alt_km": 345.0663798803798,
        "timestamp": "2025-12-21T20:41:06.759282+00:00",
        "meta_object_name": "STARLINK-36086",
        "meta_object_id": "2025-288X",
        "meta_epoch": "2025-12-21T14:00:01.999872",
        "meta_mean_motion": 15.7630648,
        "meta_eccentricity": 0.0001359,
        "meta_inclination": 43.0009,
        "meta_ra_of_asc_node": 112.9377,
        "meta_arg_of_pericenter": 271.1048,
        "meta_mean_anomaly": 160.6319,
        "meta_ephemeris_type": 0,
        "meta_classification_type": "U",
        "meta_norad_cat_id": 66980,
        "meta_element_set_no": 999,
        "meta_rev_at_epoch": 325,
        "meta_bstar": -0.010278586,
        "meta_mean_motion_dot": -0.01472353,
        "meta_mean_motion_ddot": 0,
        "tle_line1": "1 66980U 25288X   25355.58335648 -.01472353  00000+0 -10279-1 0  9992",
        "tle_line2": "2 66980  43.0009 112.9377 0001359 271.1048 160.6319 15.76306480  3254"
      },
      "geometry": {
        "type": "Point",
        "coordinates": [
          -42.63147273256691,
          -22.308310852147148
        ]
      }
    },
    {
      "type": "Feature",
      "properties": {
        "norad_id": 66981,
        "name": "STARLINK-36142",
        "group": "last-30-days",
        "lat": -23.472175202485708,
        "lon": -40.98538669644079,
        "alt_km": 345.2319713662664,
        "timestamp": "2025-12-21T20:41:06.759292+00:00",
        "meta_object_name": "STARLINK-36142",
        "meta_object_id": "2025-288Y",
        "meta_epoch": "2025-12-21T14:00:01.999872",
        "meta_mean_motion": 15.76222174,
        "meta_eccentricity": 0.00019085,
        "meta_inclination": 43.0008,
        "meta_ra_of_asc_node": 112.9325,
        "meta_arg_of_pericenter": 278.0946,
        "meta_mean_anomaly": 155.6324,
        "meta_ephemeris_type": 0,
        "meta_classification_type": "U",
        "meta_norad_cat_id": 66981,
        "meta_element_set_no": 999,
        "meta_rev_at_epoch": 325,
        "meta_bstar": -0.0099101309,
        "meta_mean_motion_dot": -0.01421253,
        "meta_mean_motion_ddot": 0,
        "tle_line1": "1 66981U 25288Y   25355.58335648 -.01421253  00000+0 -99101-2 0  9998",
        "tle_line2": "2 66981  43.0008 112.9325 0001908 278.0946 155.6324 15.76222174  3257"
      },
      "geometry": {
        "type": "Point",
        "coordinates": [
          -40.98538669644079,
          -23.472175202485708
        ]
      }
    }
  ]
}